{
  "type": "FeatureCollection",
  "features": [
    {
      "type": "Feature",
      "properties": {
        "norad_id": 32460,
        "name": "FENGYUN 1C DEB",
        "group": "fengyun-1c-debris",
        "lat": -10.273207375199155,
        "lon": 131.85797482415282,
        "alt_km": 1036.0754700200396,
        "timestamp": "2025-12-10T23:33:13.103286+00:00",
        "meta_object_name": "FENGYUN 1C DEB",
        "meta_object_id": "1999-025DBY",
        "meta_epoch": "2025-12-07T16:06:34.298784",
        "meta_mean_motion": 13.89549583,
        "meta_eccentricity": 0.01857937,
        "meta_inclination": 98.0182,
        "meta_ra_of_asc_node": 127.5395,
        "meta_arg_of_pericenter": 138.2427,
        "meta_mean_anomaly": 223.3085,
        "meta_ephemeris_type": 0,
        "meta_classification_type": "U",
        "meta_norad_cat_id": 32460,
        "meta_element_set_no": 999,
        "meta_rev_at_epoch": 65183,
        "meta_bstar": 0.0019975298,
        "meta_mean_motion_dot": 2.774e-05,
        "meta_mean_motion_ddot": 0,
        "tle_line1": "1 32460U 99025DBY 25341.67123031  .00002774  00000+0  19975-2 0  9990",
        "tle_line2": "2 32460  98.0182 127.5395 0185793 138.2427 223.3085 13.89549583651838"
      },
      "geometry": {
        "type": "Point",
        "coordinates": [
          131.85797482415282,
          -10.273207375199155
        ]
      }
    },
    {
      "type": "Feature",
      "properties": {
        "norad_id": 32461,
        "name": "FENGYUN 1C DEB",
        "group": "fengyun-1c-debris",
        "lat": -20.54577948396971,
        "lon": 17.23106224301404,
        "alt_km": 957.8021458758531,
        "timestamp": "2025-12-10T23:33:13.103296+00:00",
        "meta_object_name": "FENGYUN 1C DEB",
        "meta_object_id": "1999-025DBZ",
        "meta_epoch": "2025-12-06T13:47:26.922624",
        "meta_mean_motion": 13.72810321,
        "meta_eccentricity": 0.02320135,
        "meta_inclination": 98.3348,
        "meta_ra_of_asc_node": 196.5399,
        "meta_arg_of_pericenter": 133.6429,
        "meta_mean_anomaly": 257.3138,
        "meta_ephemeris_type": 0,
        "meta_classification_type": "U",
        "meta_norad_cat_id": 32461,
        "meta_element_set_no": 999,
        "meta_rev_at_epoch": 67210,
        "meta_bstar": 0.001699488,
        "meta_mean_motion_dot": 1.863e-05,
        "meta_mean_motion_ddot": 0,
        "tle_line1": "1 32461U 99025DBZ 25340.57461716  .00001863  00000+0  16995-2 0  9991",
        "tle_line2": "2 32461  98.3348 196.5399 0232013 133.6429 257.3138 13.72810321672107"
      },
      "geometry": {
        "type": "Point",
        "coordinates": [
          17.23106224301404,
          -20.54577948396971
        ]
      }
    },
    {
      "type": "Feature",
      "properties": {
        "norad_id": 32464,
        "name": "FENGYUN 1C DEB",
        "group": "fengyun-1c-debris",
        "lat": -59.5565500009834,
        "lon": 176.7160358026042,
        "alt_km": 517.7113646259031,
        "timestamp": "2025-12-10T23:33:13.103305+00:00",
        "meta_object_name": "FENGYUN 1C DEB",
        "meta_object_id": "1999-025DCC",
        "meta_epoch": "2025-12-10T12:49:22.084032",
        "meta_mean_motion": 14.92817492,
        "meta_eccentricity": 0.01127936,
        "meta_inclination": 97.3562,
        "meta_ra_of_asc_node": 8.996,
        "meta_arg_of_pericenter": 243.6873,
        "meta_mean_anomaly": 115.2726,
        "meta_ephemeris_type": 0,
        "meta_classification_type": "U",
        "meta_norad_cat_id": 32464,
        "meta_element_set_no": 999,
        "meta_rev_at_epoch": 60759,
        "meta_bstar": 0.0018885743,
        "meta_mean_motion_dot": 0.00022118,
        "meta_mean_motion_ddot": 0,
        "tle_line1": "1 32464U 99025DCC 25344.53428338  .00022118  00000+0  18886-2 0  9994",
        "tle_line2": "2 32464  97.3562   8.9960 0112793 243.6873 115.2726 14.92817492607599"
      },
      "geometry": {
        "type": "Point",
        "coordinates": [
          176.7160358026042,
          -59.5565500009834
        ]
      }
    },
    {
      "type": "Feature",
      "properties": {
        "norad_id": 33502,
        "name": "FENGYUN 1C DEB",
        "group": "fengyun-1c-debris",
        "lat": -25.106023721806356,
        "lon": 103.42746273290281,
        "alt_km": 785.8242179642857,
        "timestamp": "2025-12-10T23:33:13.103315+00:00",
        "meta_object_name": "FENGYUN 1C DEB",
        "meta_object_id": "1999-025DCF",
        "meta_epoch": "2025-12-10T08:06:13.976064",
        "meta_mean_motion": 14.21822997,
        "meta_eccentricity": 0.007913,
        "meta_inclination": 99.0258,
        "meta_ra_of_asc_node": 287.0403,
        "meta_arg_of_pericenter": 159.8719,
        "meta_mean_anomaly": 351.6044,
        "meta_ephemeris_type": 0,
        "meta_classification_type": "U",
        "meta_norad_cat_id": 33502,
        "meta_element_set_no": 999,
        "meta_rev_at_epoch": 86921,
        "meta_bstar": 0.0034319,
        "meta_mean_motion_dot": 7.764e-05,
        "meta_mean_motion_ddot": 0,
        "tle_line1": "1 33502U 99025DCF 25344.33766176  .00007764  00000+0  34319-2 0  9990",
        "tle_line2": "2 33502  99.0258 287.0403 0079130 159.8719 351.6044 14.21822997869216"
      },
      "geometry": {
        "type": "Point",
        "coordinates": [
          103.42746273290281,
          -25.106023721806356
        ]
      }
    },
    {
      "type": "Feature",
      "properties": {
        "norad_id": 33599,
        "name": "FENGYUN 1C DEB",
        "group": "fengyun-1c-debris",
        "lat": -78.44005421269763,
        "lon": -161.59064457588207,
        "alt_km": 466.670506926348,
        "timestamp": "2025-12-10T23:33:13.103324+00:00",
        "meta_object_name": "FENGYUN 1C DEB",
        "meta_object_id": "1999-025DCG",
        "meta_epoch": "2025-12-06T10:36:41.156064",
        "meta_mean_motion": 15.14898296,
        "meta_eccentricity": 0.0126212,
        "meta_inclination": 96.6136,
        "meta_ra_of_asc_node": 49.0151,
        "meta_arg_of_pericenter": 322.3863,
        "meta_mean_anomaly": 36.8593,
        "meta_ephemeris_type": 0,
        "meta_classification_type": "U",
        "meta_norad_cat_id": 33599,
        "meta_element_set_no": 999,
        "meta_rev_at_epoch": 65908,
        "meta_bstar": 0.0016783,
        "meta_mean_motion_dot": 0.00038297,
        "meta_mean_motion_ddot": 0,
        "tle_line1": "1 33599U 99025DCG 25340.44214301  .00038297  00000+0  16783-2 0  9992",
        "tle_line2": "2 33599  96.6136  49.0151 0126212 322.3863  36.8593 15.14898296659088"
      },
      "geometry": {
        "type": "Point",
        "coordinates": [
          -161.59064457588207,
          -78.44005421269763
        ]
      }
    },
    {
      "type": "Feature",
      "properties": {
        "norad_id": 33601,
        "name": "FENGYUN 1C DEB",
        "group": "fengyun-1c-debris",
        "lat": -30.04422876726971,
        "lon": 146.15957708958553,
        "alt_km": 986.7595510986721,
        "timestamp": "2025-12-10T23:33:13.103333+00:00",
        "meta_object_name": "FENGYUN 1C DEB",
        "meta_object_id": "1999-025DCJ",
        "meta_epoch": "2025-12-10T10:03:24.552288",
        "meta_mean_motion": 14.07898476,
        "meta_eccentricity": 0.01578633,
        "meta_inclination": 98.314,
        "meta_ra_of_asc_node": 140.7898,
        "meta_arg_of_pericenter": 149.1866,
        "meta_mean_anomaly": 211.869,
        "meta_ephemeris_type": 0,
        "meta_classification_type": "U",
        "meta_norad_cat_id": 33601,
        "meta_element_set_no": 999,
        "meta_rev_at_epoch": 90647,
        "meta_bstar": 0.0019805202,
        "meta_mean_motion_dot": 3.731e-05,
        "meta_mean_motion_ddot": 0,
        "tle_line1": "1 33601U 99025DCJ 25344.41903417  .00003731  00000+0  19805-2 0  9993",
        "tle_line2": "2 33601  98.3140 140.7898 0157863 149.1866 211.8690 14.07898476906479"
      },
      "geometry": {
        "type": "Point",
        "coordinates": [
          146.15957708958553,
          -30.04422876726971
        ]
      }
    },
    {
      "type": "Feature",
      "properties": {
        "norad_id": 33603,
        "name": "FENGYUN 1C DEB",
        "group": "fengyun-1c-debris",
        "lat": -80.64393376235537,
        "lon": 30.3267990005508,
        "alt_km": 789.6994078771413,
        "timestamp": "2025-12-10T23:33:13.103343+00:00",
        "meta_object_name": "FENGYUN 1C DEB",
        "meta_object_id": "1999-025DCL",
        "meta_epoch": "2025-12-08T13:34:00.230016",
        "meta_mean_motion": 14.79892222,
        "meta_eccentricity": 0.0220686,
        "meta_inclination": 98.8046,
        "meta_ra_of_asc_node": 277.8514,
        "meta_arg_of_pericenter": 85.703,
        "meta_mean_anomaly": 276.9361,
        "meta_ephemeris_type": 0,
        "meta_classification_type": "U",
        "meta_norad_cat_id": 33603,
        "meta_element_set_no": 999,
        "meta_rev_at_epoch": 98798,
        "meta_bstar": 0.00032432,
        "meta_mean_motion_dot": 3.636e-05,
        "meta_mean_motion_ddot": 0,
        "tle_line1": "1 33603U 99025DCL 25342.56528044  .00003636  00000+0  32432-3 0  9994",
        "tle_line2": "2 33603  98.8046 277.8514 0220686  85.7030 276.9361 14.79892222987984"
      },
      "geometry": {
        "type": "Point",
        "coordinates": [
          30.3267990005508,
          -80.64393376235537
        ]
      }
    }
  ]
}